{
    "links": {
        "self": "http://www.neowsapp.com/rest/v1/neo/54049902?api_key=iIulBulltgU6a56xZRHN4H3l9WmuAYTsLGpBGhQ2"
    },
    "id": "54049902",
    "neo_reference_id": "54049902",
    "name": "(2020 PJ)",
    "designation": "2020 PJ",
    "nasa_jpl_url": "http://ssd.jpl.nasa.gov/sbdb.cgi?sstr=54049902",
    "absolute_magnitude_h": 24.968,
    "estimated_diameter": {
        "kilometers": {
            "estimated_diameter_min": 0.0269745977,
            "estimated_diameter_max": 0.0603170342
        },
        "meters": {
            "estimated_diameter_min": 26.9745977177,
            "estimated_diameter_max": 60.3170341625
        },
        "miles": {
            "estimated_diameter_min": 0.0167612328,
            "estimated_diameter_max": 0.0374792558
        },
        "feet": {
            "estimated_diameter_min": 88.4993391762,
            "estimated_diameter_max": 197.8905383617
        }
    },
    "is_potentially_hazardous_asteroid": false,
    "close_approach_data": [
        {
            "close_approach_date": "2020-08-02",
            "close_approach_date_full": "2020-Aug-02 16:54",
            "epoch_date_close_approach": 1596387240000,
            "relative_velocity": {
                "kilometers_per_second": "6.8000241167",
                "kilometers_per_hour": "24480.0868199968",
                "miles_per_hour": "15210.9739465697"
            },
            "miss_distance": {
                "astronomical": "0.0287046591",
                "lunar": "11.1661123899",
                "kilometers": "4294155.860436117",
                "miles": "2668264.7225957346"
            },
            "orbiting_body": "Earth"
        }
    ],
    "orbital_data": {
        "orbit_id": "2",
        "orbit_determination_date": "2020-08-12 06:23:57",
        "first_observation_date": "2020-08-07",
        "last_observation_date": "2020-08-12",
        "data_arc_in_days": 5,
        "observations_used": 35,
        "orbit_uncertainty": "8",
        "minimum_orbit_intersection": ".0203762",
        "jupiter_tisserand_invariant": "4.437",
        "epoch_osculation": "2459069.5",
        "eccentricity": ".3345494075170484",
        "semi_major_axis": "1.516406706655596",
        "inclination": "8.597487247028235",
        "ascending_node_longitude": "302.2748673155532",
        "orbital_period": "682.0590434969154",
        "perihelion_distance": "1.009093741389088",
        "perihelion_argument": "28.63364202605841",
        "aphelion_distance": "2.023719671922105",
        "perihelion_time": "2459083.326130312252",
        "mean_anomaly": "352.7023811796533",
        "mean_motion": ".527813542584643",
        "equinox": "J2000",
        "orbit_class": {
            "orbit_class_type": "APO",
            "orbit_class_description": "Near-Earth asteroid orbits which cross the Earth’s orbit similar to that of 1862 Apollo",
            "orbit_class_range": "a (semi-major axis) > 1.0 AU; q (perihelion) < 1.017 AU"
        }
    },
    "is_sentry_object": false
}